{
  "type": "FeatureCollection",
  "features": [
    {
      "type": "Feature",
      "properties": {
        "norad_id": 41026,
        "name": "YAOGAN-28",
        "group": "resource",
        "lat": -73.03432628839464,
        "lon": -71.75189482222348,
        "alt_km": 507.6369767909946,
        "timestamp": "2025-12-21T11:31:42.499131+00:00",
        "meta_object_name": "YAOGAN-28",
        "meta_object_id": "2015-064A",
        "meta_epoch": "2025-12-21T04:06:52.202592",
        "meta_mean_motion": 15.24477569,
        "meta_eccentricity": 0.0012639,
        "meta_inclination": 97.2813,
        "meta_ra_of_asc_node": 132.7264,
        "meta_arg_of_pericenter": 99.2317,
        "meta_mean_anomaly": 261.0351,
        "meta_ephemeris_type": 0,
        "meta_classification_type": "U",
        "meta_norad_cat_id": 41026,
        "meta_element_set_no": 999,
        "meta_rev_at_epoch": 56353,
        "meta_bstar": 0.00021987,
        "meta_mean_motion_dot": 5.343e-05,
        "meta_mean_motion_ddot": 0,
        "tle_line1": "1 41026U 15064A   25355.17143753  .00005343  00000+0  21987-3 0  9994",
        "tle_line2": "2 41026  97.2813 132.7264 0012639  99.2317 261.0351 15.24477569563532"
      },
      "geometry": {
        "type": "Point",
        "coordinates": [
          -71.75189482222348,
          -73.03432628839464
        ]
      }
    },
    {
      "type": "Feature",
      "properties": {
        "norad_id": 41038,
        "name": "YAOGAN-29",
        "group": "resource",
        "lat": 52.752409174751,
        "lon": -150.6322713484841,
        "alt_km": 614.9912114557928,
        "timestamp": "2025-12-21T11:31:42.499142+00:00",
        "meta_object_name": "YAOGAN-29",
        "meta_object_id": "2015-069A",
        "meta_epoch": "2025-12-21T04:28:56.952192",
        "meta_mean_motion": 14.8289214,
        "meta_eccentricity": 5.79e-05,
        "meta_inclination": 98.0209,
        "meta_ra_of_asc_node": 18.3858,
        "meta_arg_of_pericenter": 170.9636,
        "meta_mean_anomaly": 189.1588,
        "meta_ephemeris_type": 0,
        "meta_classification_type": "U",
        "meta_norad_cat_id": 41038,
        "meta_element_set_no": 999,
        "meta_rev_at_epoch": 54424,
        "meta_bstar": 5.9725e-05,
        "meta_mean_motion_dot": 4.3e-06,
        "meta_mean_motion_ddot": 0,
        "tle_line1": "1 41038U 15069A   25355.18677028  .00000430  00000+0  59725-4 0  9994",
        "tle_line2": "2 41038  98.0209  18.3858 0000579 170.9636 189.1588 14.82892140544240"
      },
      "geometry": {
        "type": "Point",
        "coordinates": [
          -150.6322713484841,
          52.752409174751
        ]
      }
    },
    {
      "type": "Feature",
      "properties": {
        "norad_id": 41167,
        "name": "KENT RIDGE 1",
        "group": "resource",
        "lat": -12.80627581768475,
        "lon": 88.05011813450488,
        "alt_km": 495.41789203104963,
        "timestamp": "2025-12-21T11:31:42.499152+00:00",
        "meta_object_name": "KENT RIDGE 1",
        "meta_object_id": "2015-077B",
        "meta_epoch": "2025-12-21T02:20:52.336608",
        "meta_mean_motion": 15.21694895,
        "meta_eccentricity": 0.0008535,
        "meta_inclination": 14.9784,
        "meta_ra_of_asc_node": 149.1191,
        "meta_arg_of_pericenter": 249.0242,
        "meta_mean_anomaly": 110.9166,
        "meta_ephemeris_type": 0,
        "meta_classification_type": "U",
        "meta_norad_cat_id": 41167,
        "meta_element_set_no": 999,
        "meta_rev_at_epoch": 55391,
        "meta_bstar": 0.00011768,
        "meta_mean_motion_dot": 3.496e-05,
        "meta_mean_motion_ddot": 0,
        "tle_line1": "1 41167U 15077B   25355.09782797  .00003496  00000+0  11768-3 0  9995",
        "tle_line2": "2 41167  14.9784 149.1191 0008535 249.0242 110.9166 15.21694895553911"
      },
      "geometry": {
        "type": "Point",
        "coordinates": [
          88.05011813450488,
          -12.80627581768475
        ]
      }
    },
    {
      "type": "Feature",
      "properties": {
        "norad_id": 41194,
        "name": "GAOFEN-4",
        "group": "resource",
        "lat": -0.17875359037877417,
        "lon": 8.930473670439996,
        "alt_km": 35797.98097138152,
        "timestamp": "2025-12-21T11:31:42.499167+00:00",
        "meta_object_name": "GAOFEN-4",
        "meta_object_id": "2015-083A",
        "meta_epoch": "2025-12-19T15:27:26.627616",
        "meta_mean_motion": 1.00273138,
        "meta_eccentricity": 0.0002945,
        "meta_inclination": 0.1878,
        "meta_ra_of_asc_node": 81.7841,
        "meta_arg_of_pericenter": 93.4275,
        "meta_mean_anomaly": 250.8523,
        "meta_ephemeris_type": 0,
        "meta_classification_type": "U",
        "meta_norad_cat_id": 41194,
        "meta_element_set_no": 999,
        "meta_rev_at_epoch": 3672,
        "meta_bstar": 0,
        "meta_mean_motion_dot": -3.11e-06,
        "meta_mean_motion_ddot": 0,
        "tle_line1": "1 41194U 15083A   25353.64405819 -.00000311  00000+0  00000+0 0  9995",
        "tle_line2": "2 41194   0.1878  81.7841 0002945  93.4275 250.8523  1.00273138 36722"
      },
      "geometry": {
        "type": "Point",
        "coordinates": [
          8.930473670439996,
          -0.17875359037877417
        ]
      }
    },
    {
      "type": "Feature",
      "properties": {
        "norad_id": 41240,
        "name": "JASON-3",
        "group": "resource",
        "lat": 32.29322017399353,
        "lon": -56.87289799810428,
        "alt_km": 1311.4069619046268,
        "timestamp": "2025-12-21T11:31:42.499179+00:00",
        "meta_object_name": "JASON-3",
        "meta_object_id": "2016-002A",
        "meta_epoch": "2025-12-21T03:19:31.997856",
        "meta_mean_motion": 12.87626877,
        "meta_eccentricity": 0.0007231,
        "meta_inclination": 66.04,
        "meta_ra_of_asc_node": 140.1664,
        "meta_arg_of_pericenter": 271.3244,
        "meta_mean_anomaly": 88.6947,
        "meta_ephemeris_type": 0,
        "meta_classification_type": "U",
        "meta_norad_cat_id": 41240,
        "meta_element_set_no": 999,
        "meta_rev_at_epoch": 46432,
        "meta_bstar": -2.6999e-05,
        "meta_mean_motion_dot": -6.9e-07,
        "meta_mean_motion_ddot": 0,
        "tle_line1": "1 41240U 16002A   25355.13856479 -.00000069  00000+0 -26999-4 0  9998",
        "tle_line2": "2 41240  66.0400 140.1664 0007231 271.3244  88.6947 12.87626877464322"
      },
      "geometry": {
        "type": "Point",
        "coordinates": [
          -56.87289799810428,
          32.29322017399353
        ]
      }
    },
    {
      "type": "Feature",
      "properties": {
        "norad_id": 41335,
        "name": "SENTINEL-3A",
        "group": "resource",
        "lat": -41.05557640053623,
        "lon": -127.23061887621587,
        "alt_km": 809.5880468538353,
        "timestamp": "2025-12-21T11:31:42.499190+00:00",
        "meta_object_name": "SENTINEL-3A",
        "meta_object_id": "2016-011A",
        "meta_epoch": "2025-12-21T03:45:39.140064",
        "meta_mean_motion": 14.26733658,
        "meta_eccentricity": 9.03e-05,
        "meta_inclination": 98.6303,
        "meta_ra_of_asc_node": 60.0517,
        "meta_arg_of_pericenter": 94.6325,
        "meta_mean_anomaly": 265.4958,
        "meta_ephemeris_type": 0,
        "meta_classification_type": "U",
        "meta_norad_cat_id": 41335,
        "meta_element_set_no": 999,
        "meta_rev_at_epoch": 51267,
        "meta_bstar": 5.7339e-05,
        "meta_mean_motion_dot": 9.5e-07,
        "meta_mean_motion_ddot": 0,
        "tle_line1": "1 41335U 16011A   25355.15670301  .00000095  00000+0  57339-4 0  9992",
        "tle_line2": "2 41335  98.6303  60.0517 0000903  94.6325 265.4958 14.26733658512672"
      },
      "geometry": {
        "type": "Point",
        "coordinates": [
          -127.23061887621587,
          -41.05557640053623
        ]
      }
    },
    {
      "type": "Feature",
      "properties": {
        "norad_id": 41556,
        "name": "ZIYUAN 3-02 (ZY 3-02)",
        "group": "resource",
        "lat": 62.46862257508513,
        "lon": 55.05657724620119,
        "alt_km": 502.88857392139744,
        "timestamp": "2025-12-21T11:31:42.499201+00:00",
        "meta_object_name": "ZIYUAN 3-02 (ZY 3-02)",
        "meta_object_id": "2016-033A",
        "meta_epoch": "2025-12-21T04:56:06.504576",
        "meta_mean_motion": 15.21164954,
        "meta_eccentricity": 0.0011114,
        "meta_inclination": 97.4036,
        "meta_ra_of_asc_node": 69.2318,
        "meta_arg_of_pericenter": 214.4828,
        "meta_mean_anomaly": 145.5687,
        "meta_ephemeris_type": 0,
        "meta_classification_type": "U",
        "meta_norad_cat_id": 41556,
        "meta_element_set_no": 999,
        "meta_rev_at_epoch": 53092,
        "meta_bstar": 0.00022407,
        "meta_mean_motion_dot": 4.931e-05,
        "meta_mean_motion_ddot": 0,
        "tle_line1": "1 41556U 16033A   25355.20563084  .00004931  00000+0  22407-3 0  9996",
        "tle_line2": "2 41556  97.4036  69.2318 0011114 214.4828 145.5687 15.21164954530921"
      },
      "geometry": {
        "type": "Point",
        "coordinates": [
          55.05657724620119,
          62.46862257508513
        ]
      }
    }
  ]
}